HULIANWANG DIGUI-156    
1 68130U 26047B   26195.58612291 -.00000101  00000+0  49200-4 0  9995
2 68130  50.0052 318.0462 0000848 200.3225 159.7613 13.29326177 16707
HULIANWANG DIGUI-157    
1 68131U 26047C   26195.57778587 -.00000114  00000+0  21654-4 0  9993
2 68131  50.0022 317.9736 0000895 195.9364 164.1480 13.29325415 16719
HULIANWANG DIGUI-158    
1 68132U 26047D   26195.56940062 -.00000087  00000+0  80901-4 0  9991
2 68132  50.0074 317.9787 0000956 196.6152 163.4689 13.29324302 16700
HULIANWANG DIGUI-159    
1 68133U 26047E   26195.71142592 -.00000100  00000+0  51867-4 0  9996
2 68133  50.0036 317.3638 0001057 191.7662 168.3186 13.29325990 16736
HULIANWANG DIGUI-160    
1 68134U 26047F   26195.61945685 -.00000090  00000+0  73357-4 0  9996
2 68134  50.0092 317.6062 0001102 180.2697 179.8174 13.29325748 16718
HULIANWANG DIGUI-161    
1 68135U 26047G   26195.55263932 -.00000097  00000+0  57448-4 0  9998
2 68135  50.0113 317.9400 0000917 194.0280 166.0567 13.29334363 16713
HULIANWANG DIGUI-162    
1 68136U 26047H   26195.76169350 -.00000093  00000+0  66530-4 0  9999
2 68136  50.0083 317.0151 0000901 201.0246 159.0589 13.29324173 16734
HULIANWANG DIGUI-163    
1 68137U 26047J   26195.67797244 -.00000092  00000+0  68307-4 0  9992
2 68137  50.0086 317.2434 0000769 200.6889 159.3952 13.29339040 16730
HULIANWANG DIGUI-164    
1 68656U 26076A   26196.15506932  .00000004  00000+0 -24318-4 0  9993
2 68656  86.4946  34.4319 0002029  78.5544 281.5817 13.24410829 13077
HULIANWANG DIGUI-165    
1 68657U 26076B   26196.14752742 -.00000016  00000+0 -71708-4 0  9994
2 68657  86.4965  34.4511 0002153  84.8245 275.3135 13.24413457 13073
HULIANWANG DIGUI-166    
1 68658U 26076C   26196.14003307 -.00000016  00000+0 -70522-4 0  9994
2 68658  86.4907  34.3850 0002120  84.6793 275.4582 13.24411479 13074
HULIANWANG DIGUI-167    
1 68659U 26076D   26196.13241310 -.00000005  00000+0 -46073-4 0  9994
2 68659  86.4961  34.4408 0002117  84.4056 275.7320 13.24413557 13073
HULIANWANG DIGUI-168    
1 68660U 26076E   26196.20040978 -.00000016  00000+0 -72465-4 0  9997
2 68660  86.4942  34.3911 0002143  84.9539 275.1840 13.24411735 13079
